{
    "links": {
        "self": "http://www.neowsapp.com/rest/v1/neo/3873314?api_key=iIulBulltgU6a56xZRHN4H3l9WmuAYTsLGpBGhQ2"
    },
    "id": "3873314",
    "neo_reference_id": "3873314",
    "name": "(2019 SM10)",
    "designation": "2019 SM10",
    "nasa_jpl_url": "http://ssd.jpl.nasa.gov/sbdb.cgi?sstr=3873314",
    "absolute_magnitude_h": 25.1,
    "estimated_diameter": {
        "kilometers": {
            "estimated_diameter_min": 0.0253837029,
            "estimated_diameter_max": 0.0567596853
        },
        "meters": {
            "estimated_diameter_min": 25.3837029364,
            "estimated_diameter_max": 56.7596852866
        },
        "miles": {
            "estimated_diameter_min": 0.0157726969,
            "estimated_diameter_max": 0.0352688224
        },
        "feet": {
            "estimated_diameter_min": 83.279867942,
            "estimated_diameter_max": 186.2194458756
        }
    },
    "is_potentially_hazardous_asteroid": false,
    "close_approach_data": [
        {
            "close_approach_date": "2019-09-02",
            "close_approach_date_full": "2019-Sep-02 21:37",
            "epoch_date_close_approach": 1567460220000,
            "relative_velocity": {
                "kilometers_per_second": "5.560387479",
                "kilometers_per_hour": "20017.3949244384",
                "miles_per_hour": "12438.030751799"
            },
            "miss_distance": {
                "astronomical": "0.1182629735",
                "lunar": "46.0042966915",
                "kilometers": "17691888.935466445",
                "miles": "10993230.021649141"
            },
            "orbiting_body": "Earth"
        }
    ],
    "orbital_data": {
        "orbit_id": "1",
        "orbit_determination_date": "2019-10-03 06:42:07",
        "first_observation_date": "2019-08-28",
        "last_observation_date": "2019-10-03",
        "data_arc_in_days": 36,
        "observations_used": 15,
        "orbit_uncertainty": "8",
        "minimum_orbit_intersection": ".116913",
        "jupiter_tisserand_invariant": "3.575",
        "epoch_osculation": "2458744.5",
        "eccentricity": ".474101577214422",
        "semi_major_axis": "2.119182101106418",
        "inclination": "4.947136009894151",
        "ascending_node_longitude": "190.7306347623322",
        "orbital_period": "1126.81038954527",
        "perihelion_distance": "1.114474524567293",
        "perihelion_argument": "143.5599356327648",
        "aphelion_distance": "3.123889677645544",
        "perihelion_time": "2458724.910595272376",
        "mean_anomaly": "6.258538053408069",
        "mean_motion": ".3194858721042499",
        "equinox": "J2000",
        "orbit_class": {
            "orbit_class_type": "AMO",
            "orbit_class_description": "Near-Earth asteroid orbits similar to that of 1221 Amor",
            "orbit_class_range": "1.017 AU < q (perihelion) < 1.3 AU"
        }
    },
    "is_sentry_object": false
}